id,name,city,country,continent,region,lon,lat,rank
JED,King Abdulaziz International,Jeddah,Saudi Arabia,Asia,Western Asia,39.156667,21.679444,16
BCN,Barcelona–El Prat,Barcelona,Spain,Europe,Southern Europe,2.078333,41.296944,18
TLV,Ben Gurion,Tel Aviv,Israel,Asia,Western Asia,34.880556,32.007222,22
DEL,Indira Gandhi International,New Delhi,India,Asia,Southern Asia,77.103056,28.566389,23
MAD,Adolfo Suárez Madrid–Barajas,Madrid,Spain,Europe,Southern Europe,-3.566667,40.493611,25
CAI,Cairo International,Cairo,Egypt,Africa,Northern Africa,31.405556,30.121944,28
DXB,Dubai International,Dubai,United Arab Emirates,Asia,Western Asia,55.364444,25.252778,31
RUH,King Khalid International,Riyadh,Saudi Arabia,Asia,Western Asia,46.698889,24.957778,35
FCO,Leonardo da Vinci–Fiumicino Airport,Rome,Italy,Europe,Southern Europe,12.238889,41.800278,37
IST,Istanbul Airport,Istanbul,Turkey,Asia,Western Asia,28.751944,41.275278,40
BOM,Chhatrapati Shivaji International,Mumbai,India,Asia,Southern Asia,72.868056,19.088611,43
LHR,Heathrow,London,United Kingdom,Europe,Northern Europe,-0.461389,51.4775,50
CDG,Charles de Gaulle Airport,Paris,France,Europe,Western Europe,2.547778,49.009722,51
LGW,Gatwick,London,United Kingdom,Europe,Northern Europe,-0.190278,51.148056,52
SAW,Sabiha Gökçen International,Istanbul,Turkey,Asia,Western Asia,29.309167,40.898611,54
ATH,Athens International,Athens,Greece,Europe,Southern Europe,23.944444,37.936389,55
BUD,Budapest Ferenc Liszt International,Budapest,Hungary,Europe,Central Europe,19.255556,47.436944,57
LIS,Lisbon Portela,Lisbon,Portugal,Europe,Southern Europe,-9.134167,38.774167,62
LHE,Allama Iqbal International,Lahore,Pakistan,Asia,Southern Asia,74.403611,31.521667,66
AMM,Queen Alia International,Amman,Jordan,Asia,Western Asia,35.993333,31.7225,72
VIE,Vienna International Airport,Vienna,Austria,Europe,Central Europe,16.578056,48.110278,75
DUB,Dublin,Dublin,Ireland,Europe,Northern Europe,-6.27,53.421389,76
ISB,Islamabad International Airport,Islamabad,Pakistan,Asia,Southern Asia,72.826754,33.55126,78
CPH,Airport Copenhagen,Copenhagen,Denmark,Europe,Northern Europe,12.650278,55.620278,79
KHI,Jinnah International,Karachi,Pakistan,Asia,Southern Asia,67.160833,24.906667,81
OTP,Henri Coandă International,Bucharest,Romania,Europe,Eastern Europe,26.102222,44.572222,82
MXP,Milan–Malpensa,Milan,Italy,Europe,Southern Europe,8.723056,45.63,83
AMD,Sardar Vallabhbhai Patel International,Ahmedabad,India,Asia,Southern Asia,72.634722,23.077222,84
TIA,Tirana International Airport Nënë Tereza,Tirana,Albania,Europe,Southern Europe,19.720833,41.415,89
AMS,Amsterdam Airport Schiphol,Amsterdam,Netherlands,Europe,Western Europe,4.764167,52.308056,90
STN,London Stansted,London,United Kingdom,Europe,Northern Europe,0.235,51.885,91
BER,Berlin Brandenburg,Berlin,Germany,Europe,Central Europe,13.503333,52.366667,92
ORY,Paris Orly,Paris,France,Europe,Western Europe,2.379444,48.723333,94
LOS,Murtala Muhammed International,Lagos,Nigeria,Africa,Western Africa,3.321111,6.5775,96
WAW,Warsaw Chopin,Warsaw,Poland,Europe,Central Europe,20.967222,52.165833,99
DOH,Hamad International,Doha,Qatar,Asia,Western Asia,51.608333,25.274444,102
DMM,King Fahd International,Dammam,Saudi Arabia,Asia,Western Asia,49.797778,26.471111,104
PRG,Václav Havel Airport Prague,Prague,Czechia,Europe,Central Europe,14.26,50.100833,106
BEY,Beirut–Rafic Hariri International,Beirut,Lebanon,Asia,Western Asia,35.488333,33.820833,108
NBO,Jomo Kenyatta International,Nairobi,Kenya,Africa,Eastern Africa,36.927778,-1.319167,114
MCT,Muscat International,Muscat,Oman,Asia,Western Asia,58.281667,23.592778,115
CMN,Mohammed V International,Casablanca,Morocco,Africa,Northern Africa,-7.59,33.3675,117
MED,Prince Mohammad bin Abdulaziz,Medina,Saudi Arabia,Asia,Western Asia,39.705,24.553333,119
ARN,Stockholm Arlanda,Stockholm,Sweden,Europe,Northern Europe,17.918611,59.651944,120
MAN,Manchester,Manchester,United Kingdom,Europe,Northern Europe,-2.275,53.353611,127
KWI,Kuwait International,Kuwait City,Kuwait,Asia,Western Asia,47.968889,29.226667,128
FRA,Frankfurt International Airport,Frankfurt,Germany,Europe,Central Europe,8.570556,50.033056,129
RAK,Marrakesh Menara,Marrakesh,Morocco,Africa,Northern Africa,-8.036389,31.606944,136
AUH,Zayed International Airport,Abu Dhabi,United Arab Emirates,Asia,Western Asia,54.651111,24.433056,140
HEL,Helsinki,Helsinki,Finland,Europe,Northern Europe,24.963333,60.317222,144
LTN,Luton,London,United Kingdom,Europe,Northern Europe,-0.368333,51.874722,147
SOF,Sofia,Sofia,Bulgaria,Europe,Eastern Europe,23.406111,42.695278,149
RMO,Chișinău International,Chișinău,Moldova,Europe,Eastern Europe,28.9349,46.9352,150
ZRH,Zürich Airport,Zürich,Switzerland,Europe,Central Europe,8.549167,47.464722,151
MLA,Malta International,Malta,Malta,Europe,Southern Europe,14.4775,35.8575,155
KRK,John Paul II International Airport Kraków–Balice,Kraków,Poland,Europe,Central Europe,19.784722,50.077778,156
BRU,Brussels,Brussels,Belgium,Europe,Western Europe,4.484444,50.901389,157
AGP,Málaga,Málaga,Spain,Europe,Southern Europe,-4.499167,36.675,159
BEG,Belgrade Nikola Tesla,Belgrade,Serbia,Europe,Southern Europe,20.309167,44.818333,161
BGW,Baghdad International,Baghdad,Iraq,Asia,Western Asia,44.234444,33.2625,163
TBS,Tbilisi International,Tbilisi,Georgia,Asia,Western Asia,44.954722,41.669167,166
EVN,Zvartnots International,Yerevan,Armenia,Asia,Western Asia,44.395833,40.147222,168
MUC,Munich,Munich,Germany,Europe,Central Europe,11.786111,48.353889,170
EBL,Erbil International,Erbil,Iraq,Asia,Western Asia,43.963056,36.237778,172
BGY,Milan Bergamo International Airport,Milan,Italy,Europe,Southern Europe,9.700278,45.668889,175
CRL,Brussels South Charleroi,Brussels,Belgium,Europe,Western Europe,4.453889,50.459167,178
LCA,Larnaca International,Larnaca,Cyprus,Europe,Southern Europe,33.624722,34.875,179
SHJ,Sharjah International,Dubai,United Arab Emirates,Asia,Western Asia,55.517222,25.328611,181
ACC,Kotoka International,Accra,Ghana,Africa,Western Africa,-0.166667,5.605278,187
TUN,Tunis–Carthage International,Tunis,Tunisia,Africa,Northern Africa,10.227222,36.851111,192
OPO,Porto,Porto,Portugal,Europe,Southern Europe,-8.678056,41.235556,194
KEF,Keflavík International,Reykjavik,Iceland,Europe,Northern Europe,-22.605556,63.985,195
VCE,Venice Marco Polo,Venice,Italy,Europe,Southern Europe,12.351944,45.505278,196
OSL,"Oslo Airport, Gardermoen",Oslo,Norway,Europe,Northern Europe,11.100278,60.193889,199
GYD,Heydar Aliyev International,Baku,Azerbaijan,Asia,Western Asia,50.046667,40.4675,200
TAS,Tashkent International,Tashkent,Uzbekistan,Asia,Central Asia,69.281111,41.257778,202
ABV,Nnamdi Azikiwe International,Abuja,Nigeria,Africa,Western Africa,7.263056,9.006667,204
BVA,Beauvais–Tillé,Paris,France,Europe,Western Europe,2.112778,49.454444,206
DUS,Düsseldorf International Airport,Düsseldorf,Germany,Europe,Central Europe,6.766667,51.289444,210
VNO,Vilnius,Vilnius,Lithuania,Europe,Northern Europe,25.285833,54.634167,211
EDI,Edinburgh Airport,Edinburgh,United Kingdom,Europe,Northern Europe,-3.3725,55.95,215
VLC,Valencia,Valencia,Spain,Europe,Southern Europe,-0.481667,39.489444,217
GVA,Geneva,Geneva,Switzerland,Europe,Central Europe,6.108889,46.238056,218
KBL,Hamid Karzai International,Kabul,Afghanistan,Asia,Southern Asia,69.2125,34.565833,219
ALC,Alicante–Elche,Alicante,Spain,Europe,Southern Europe,-0.558056,38.282222,224
SVQ,Seville,Seville,Spain,Europe,Southern Europe,-5.893056,37.418056,226
AYT,Antalya,Antalya,Turkey,Asia,Western Asia,30.800556,36.898611,230
SKP,Skopje Alexander the Great,Skopje,Republic of North Macedonia,Europe,Southern Europe,21.621389,41.961667,234
BAH,Bahrain International,Manama,Bahrain,Asia,Western Asia,50.633611,26.270833,235
IKA,Tehran Imam Khomeini International,Tehran,Iran,Asia,Southern Asia,51.152222,35.416111,238
ATQ,Sri Guru Ram Dass Jee International,Amritsar,India,Asia,Southern Asia,74.797222,31.709722,240
NAP,Naples International,Naples,Italy,Europe,Southern Europe,14.290833,40.884444,241
DAM,Damascus International,Damascus,Syria,Asia,Southern Asia,36.514167,33.410556,249
ESB,Esenboğa International,Ankara,Turkey,Asia,Western Asia,32.995,40.128056,261
SKG,Thessaloniki International Airport Macedonia,Thessaloniki,Greece,Europe,Southern Europe,22.970833,40.519722,263
ZAG,Zagreb,Zagreb,Croatia,Europe,Southern Europe,16.068889,45.743056,264
PMI,Palma de Mallorca,"Palma, Majorca",Spain,Europe,Southern Europe,2.738889,39.551667,266
HAM,Hamburg,Hamburg,Germany,Europe,Central Europe,9.988333,53.630278,272
CTA,Catania–Fontanarossa,Catania,Italy,Europe,Southern Europe,15.063889,37.466667,273
ALG,Houari Boumediene,Algiers,Algeria,Africa,Northern Africa,3.214722,36.694167,275
HRG,Hurghada International,Hurghada,Egypt,Africa,Northern Africa,33.801389,27.178611,276
NCE,Nice Côte d Azur International,Nice,France,Europe,Western Europe,7.215,43.665278,278
RIX,Riga International,Riga,Latvia,Europe,Northern Europe,23.971111,56.923611,280
WMI,Warsaw Modlin,Warsaw,Poland,Europe,Central Europe,20.651667,52.451111,281
PRN,Pristina International,Pristina,Kosovo,Europe,Southern Europe,21.035833,42.572778,289
ADD,Addis Ababa Bole International,Addis Ababa,Ethiopia,Africa,Eastern Africa,38.799444,8.977778,290
TLL,Tallinn,Tallinn,Estonia,Europe,Northern Europe,24.8325,59.413333,294
BHX,Birmingham,Birmingham,United Kingdom,Europe,Northern Europe,-1.747778,52.453611,295
SSH,Sharm el-Sheikh International,Sharm El Sheikh,Egypt,Africa,Northern Africa,34.395,27.977222,297
TFS,Tenerife–South,Tenerife,Spain,Europe,Southern Europe,-16.5725,28.044444,304
CGN,Cologne Bonn Airport,Cologne,Germany,Europe,Central Europe,7.142778,50.865833,313
SKT,Sialkot International,Sialkot,Pakistan,Asia,Southern Asia,74.363889,32.535278,314
SJJ,Sarajevo International,Sarajevo,Bosnia & Herzegovina,Europe,Southern Europe,18.331389,43.824722,316
AHB,Abha Regional,Abha,Saudi Arabia,Asia,Western Asia,42.656667,18.240278,317
CIA,Ciampino–G. B. Pastine International,Rome,Italy,Europe,Southern Europe,12.595,41.798889,321
EBB,Entebbe International,Entebbe,Uganda,Africa,Eastern Africa,32.443611,0.0425,322
AGA,Agadir–Al Massira,Agadir,Morocco,Africa,Northern Africa,-9.413056,30.325,324
FLR,Florence,Florence,Italy,Europe,Southern Europe,11.202778,43.808611,325
MUX,Multan International,Multan,Pakistan,Asia,Southern Asia,71.419167,30.203333,327
LIN,Linate,Milan,Italy,Europe,Southern Europe,9.278333,45.449444,334
ADB,Adnan Menderes,İzmir,Turkey,Asia,Western Asia,27.156944,38.2925,336
DSS,Blaise Diagne International Airport,Dakar,Senegal,Africa,Western Africa,-17.066944,14.671111,340
MRS,Marseille Provence,Marseille,France,Europe,Western Europe,5.215,43.436667,341
TNG,Tangier Ibn Battouta,Tangier,Morocco,Africa,Northern Africa,-5.916944,35.726944,345
TGD,Podgorica,Podgorica,Montenegro,Europe,Southern Europe,19.251944,42.359444,348
RBA,Rabat–Salé,Rabat,Morocco,Africa,Northern Africa,-6.751389,34.051389,353
ALA,Almaty International,Almaty,Kazakhstan,Asia,Central Asia,77.042222,43.353333,354
STR,Stuttgart,Stuttgart,Germany,Europe,Central Europe,9.221944,48.69,357
HHN,Frankfurt–Hahn,Frankfurt,Germany,Europe,Central Europe,7.263889,49.948611,358
LPA,Gran Canaria,Las Palmas,Spain,Europe,Southern Europe,-15.386667,27.931944,362
BLQ,Bologna Guglielmo Marconi,Bologna,Italy,Europe,Southern Europe,11.296944,44.530833,366
TOS,"Tromsø Airport, Langnes",Tromsø,Norway,Europe,Northern Europe,18.918889,69.683333,370
EIN,Eindhoven,Eindhoven,Netherlands,Europe,Western Europe,5.374444,51.45,380
SPX,Sphinx International Airport,Giza,Egypt,Africa,Northern Africa,30.894444,30.109722,384
GDN,Gdańsk Lech Wałęsa,Gdańsk,Poland,Europe,Central Europe,18.466111,54.3775,387
KUT,David the Builder Kutaisi International,Kutaisi,Georgia,Asia,Western Asia,42.4825,42.176667,388
LYS,Lyon–Saint-Exupéry,Lyon,France,Europe,Western Europe,5.081111,45.725556,392
CLJ,Cluj International,Cluj-Napoca,Romania,Europe,Eastern Europe,23.686111,46.785278,394
BDQ,Vadodara,Vadodara,India,Asia,Southern Asia,73.226389,22.336111,396
JAI,Jaipur International,Jaipur,India,Asia,Southern Asia,75.812222,26.824167,397
DWC,Al Maktoum International,Dubai,United Arab Emirates,Asia,Western Asia,55.16,24.896111,399
LUX,Luxembourg,Luxembourg,Luxembourg,Europe,Western Europe,6.204444,49.623333,400
BSZ,Manas International Airport,Bishkek,Kyrgyzstan,Asia,Central Asia,74.4775,43.061389,403
BIO,Bilbao,Bilbao,Spain,Europe,Southern Europe,-2.910556,43.301111,405
PMO,Falcone–Borsellino,Palermo,Italy,Europe,Southern Europe,13.099444,38.181944,407
BJL,Banjul International,Banjul,Gambia,Africa,Western Africa,-16.652222,13.338056,411
FNC,Cristiano Ronaldo International,Funchal,Portugal,Europe,Southern Europe,-16.778056,32.694167,412
PEW,Bacha Khan International,Peshawar,Pakistan,Asia,Southern Asia,71.514444,33.993889,413
BTS,Bratislava Airport,Bratislava,Slovakia,Europe,Central Europe,17.212778,48.170278,414
PFO,Paphos International,Paphos,Cyprus,Europe,Southern Europe,32.485833,34.718056,423
HBE,Borg El Arab,Alexandria,Egypt,Africa,Northern Africa,29.696389,30.917778,425
TUU,Tabuk Regional,Tabuk,Saudi Arabia,Asia,Western Asia,36.618889,28.365556,426
PNQ,Pune,Pune,India,Asia,Southern Asia,73.919722,18.582222,427
LKO,Chaudhary Charan Singh International,Lucknow,India,Asia,Southern Asia,80.889444,26.760556,428
FAO,Faro,Faro,Portugal,Europe,Southern Europe,-7.965833,37.014444,431
GOT,Göteborg Landvetter,Gothenburg,Sweden,Europe,Northern Europe,12.279722,57.662778,434
XNB,Dubai Bus Station,Dubai,United Arab Emirates,Asia,Western Asia,55.333333,25.25,435
ECN,Ercan International,Northern Cyprus,Unknown Region,Asia,Western Asia,33.488333,35.159722,436
TSF,Treviso,Venice,Italy,Europe,Southern Europe,12.197778,45.650833,437
BSL,EuroAirport Basel Mulhouse Freiburg,Basel,Switzerland,Europe,Central Europe,7.521667,47.601111,440
RVN,Rovaniemi,Rovaniemi,Finland,Europe,Northern Europe,25.830278,66.564722,445
IBZ,Ibiza,Ibiza,Spain,Europe,Southern Europe,1.373056,38.872778,446
TLS,Toulouse–Blagnac,Toulouse,France,Europe,Western Europe,1.367778,43.635,452
COV,Cukurova International Airport,Mersin,Turkey,Asia,Western Asia,35.0675,36.896944,453
HER,Heraklion International,Heraklion,Greece,Europe,Southern Europe,25.180278,35.339722,456
TFN,Tenerife-North,Tenerife,Spain,Europe,Southern Europe,-16.341667,28.482778,459
ROB,Roberts International,Monrovia,Liberia,Africa,Western Africa,-10.362222,6.233889,460
LXR,Luxor International,Luxor,Egypt,Africa,Northern Africa,32.706667,25.671111,465
DLA,Douala International,Douala,Cameroon,Africa,Central Africa,9.719444,4.006111,467
PSA,Pisa International,Pisa,Italy,Europe,Southern Europe,10.395556,43.682778,471
BRI,Bari Karol Wojtyła,Bari,Italy,Europe,Southern Europe,16.765,41.138056,472
TIF,Ta if Regional,Ta if,Saudi Arabia,Asia,Western Asia,40.544444,21.483333,474
GLA,Glasgow,Glasgow,United Kingdom,Europe,Northern Europe,-4.433333,55.871944,475
NUE,Nuremberg,Nuremberg,Germany,Europe,Central Europe,11.066944,49.498611,478
GIZ,Jazan,Jizan,Saudi Arabia,Asia,Western Asia,42.585833,16.901111,482
ENU,Akanu Ibiam International,Enugu,Nigeria,Africa,Western Africa,7.561944,6.474167,484
ISU,Sulaimaniyah International,Sulaymaniyah,Iraq,Asia,Western Asia,45.315833,35.5625,486
ALP,Aleppo International Airport,Aleppo,Syria,Asia,Southern Asia,37.2244,36.180698,487
KGL,Kigali International,Kigali,Rwanda,Africa,Eastern Africa,30.139444,-1.968611,488
LYP,Faisalabad International,Faisalabad District,Pakistan,Asia,Southern Asia,72.994722,31.365,490
FEZ,Fès–Saïs,Fes,Morocco,Africa,Northern Africa,-4.978056,33.927222,493
DTM,Dortmund,Dortmund,Germany,Europe,Central Europe,7.612222,51.518333,496
MGQ,Aden Adde International,Mogadishu,Somalia,Africa,Eastern Africa,45.305,2.014722,503
IXC,Chandigarh International,Chandigarh,India,Asia,Southern Asia,76.788611,30.673333,508
TRF,"Sandefjord Airport, Torp",Oslo,Norway,Europe,Northern Europe,10.258611,59.186667,509
SLL,Salalah,Salalah,Oman,Asia,Western Asia,54.091389,17.038611,514
FIH,N djili,Kinshasa,Democratic Republic of the Congo,Africa,Central Africa,15.444444,-4.385833,518
JRO,Kilimanjaro International,Mount Kilimanjaro,Tanzania,Africa,Eastern Africa,37.074444,-3.429444,522
NQZ,Nursultan Nazarbayev International Airport,Astana,Kazakhstan,Asia,Central Asia,71.466944,51.023056,524
TRN,Turin,Turin,Italy,Europe,Southern Europe,7.649444,45.2025,525
JTR,Santorini (Thira) National,Santorini,Greece,Europe,Southern Europe,25.479444,36.399167,526
IAS,Iași International,Iași,Romania,Europe,Eastern Europe,27.620556,47.178611,527
PHC,Port Harcourt International,Port Harcourt,Nigeria,Africa,Western Africa,6.949722,5.015556,529
ACE,Lanzarote,Lanzarote,Spain,Europe,Southern Europe,-13.605278,28.945556,534
CAG,Cagliari Elmas,Cagliari,Italy,Europe,Southern Europe,9.057778,39.251389,535
ASW,Aswan International,Aswan,Egypt,Africa,Northern Africa,32.82,23.964444,536
IDR,Devi Ahilya Bai Holkar,Indore,India,Asia,Southern Asia,75.801111,22.721667,544
ABJ,Port Bouet,Abidjan,Côte d’Ivoire,Africa,Western Africa,-3.926389,5.261389,545
SPU,Split,Split,Croatia,Europe,Southern Europe,16.298056,43.538889,549
MHD,Mashhad International,Mashhad,Iran,Asia,Southern Asia,59.645,36.234167,550
POZ,Poznań–Ławica,Poznań,Poland,Europe,Central Europe,16.826389,52.421111,551
WRO,Copernicus Airport Wrocław,Wrocław,Poland,Europe,Central Europe,16.885833,51.102778,553
DBV,Dubrovnik,Dubrovnik,Croatia,Europe,Southern Europe,18.268333,42.561389,554
BBU,Baneasa International Airport,Bucharest,Romania,Europe,Eastern Europe,26.1021,44.503201,556
CHQ,Chania International,Chania,Greece,Europe,Southern Europe,24.149722,35.531667,563
LJU,Ljubljana Jože Pučnik,Ljubljana,Slovenia,Europe,Southern Europe,14.4575,46.223611,566
TSR,Timișoara Traian Vuia International,Timișoara,Romania,Europe,Eastern Europe,21.337778,45.81,568
BRS,Bristol,Bristol,United Kingdom,Europe,Northern Europe,-2.718889,51.3825,572
VAR,Varna,Varna,Bulgaria,Europe,Eastern Europe,27.825,43.231944,583
VRN,Verona Villafranca,Verona,Italy,Europe,Southern Europe,10.888056,45.396389,586
NTE,Nantes Atlantique,Nantes,France,Europe,Western Europe,-1.607778,47.156944,593
FMM,Memmingen,Memmingen,Germany,Europe,Central Europe,10.2375,47.988056,595
KTW,Katowice International,Katowice,Poland,Europe,Central Europe,19.08,50.474167,596
CKY,Conakry International,Conakry,Guinea,Africa,Western Africa,-13.611944,9.576944,605
PKR,Pokhara,Pokhara,Nepal,Asia,Southern Asia,83.981389,28.200556,612
TZX,Trabzon,Trabzon,Turkey,Asia,Western Asia,39.789722,40.995,613
ELQ,Prince Nayef bin Abdulaziz Regional,Al-Qassim Region,Saudi Arabia,Asia,Western Asia,43.773889,26.302778,616
MIR,Monastir Habib Bourguiba International,Monastir,Tunisia,Africa,Northern Africa,10.754722,35.758056,621
UDR,Maharana Pratap,Udaipur,India,Asia,Southern Asia,73.896111,24.617778,622
BFS,Belfast International,Belfast,United Kingdom,Europe,Northern Europe,-6.215833,54.6575,623
ASR,Erkilet International,Kayseri,Turkey,Asia,Western Asia,35.495556,38.770278,627
YYT,St. John's International,St. John s,Canada,North America,Northern America,-52.751944,47.618611,628
HAJ,Hannover,Hanover,Germany,Europe,Central Europe,9.689444,52.460556,631
BUS,Batumi International,Batumi,Georgia,Asia,Western Asia,41.599722,41.610278,632
BNI,Benin,Benin City,Nigeria,Africa,Western Africa,5.599444,6.316944,633
BOD,Bordeaux–Mérignac,Bordeaux,France,Europe,Western Europe,-0.715278,44.828611,640
KSC,Košice International,Košice,Slovakia,Europe,Central Europe,21.241111,48.663056,642
NRN,Weeze,Düsseldorf,Germany,Europe,Central Europe,6.142222,51.6025,643
PDL,João Paulo II,Ponta Delgada,Portugal,Europe,Southern Europe,-25.697778,37.741111,646
WIL,Wilson,Nairobi,Kenya,Africa,Eastern Africa,36.814722,-1.321667,648
NSI,Yaoundé Nsimalen International,Yaoundé,Cameroon,Africa,Central Africa,11.553333,3.7225,649
BLL,Billund,Billund,Denmark,Europe,Northern Europe,9.151667,55.740278,653
SCQ,Santiago de Compostela,Santiago de Compostela,Spain,Europe,Southern Europe,-8.415278,42.896389,656
TIV,Tivat,Tivat,Montenegro,Europe,Southern Europe,18.723333,42.404722,660
ABB,Asaba International,Asaba,Nigeria,Africa,Western Africa,6.667222,6.203056,665
PZU,Port Sudan New International,Port,Sudan,Africa,Northern Africa,37.234167,19.433611,666
BGO,"Bergen Airport, Flesland",Bergen,Norway,Europe,Northern Europe,5.218056,60.293333,667
LCY,London City,London,United Kingdom,Europe,Northern Europe,0.054167,51.505,668
EAM,Najran Regional Airport,Najran,Saudi Arabia,Asia,Western Asia,44.419167,17.611389,670
ORN,Oran Es Sénia,Oran,Algeria,Africa,Northern Africa,-0.621111,35.623889,671
DYU,Dushanbe International,Dushanbe,Tajikistan,Asia,Central Asia,68.825,38.543333,673
NKC,Nouakchott International,Nouakchott,Mauritania,Africa,Western Africa,-15.948056,18.097778,675
NCL,Newcastle,Newcastle upon Tyne,United Kingdom,Europe,Northern Europe,-1.691667,55.0375,679
LPL,Liverpool John Lennon,Liverpool,United Kingdom,Europe,Northern Europe,-2.849722,53.333611,680
FUE,Fuerteventura,Fuerteventura,Spain,Europe,Southern Europe,-13.863889,28.452778,681
OUD,Angads,Oujda,Morocco,Africa,Northern Africa,-1.923889,34.787222,684
ATZ,Assiut,Asyut,Egypt,Africa,Northern Africa,31.011944,27.046389,685
OVD,Asturias,Asturias,Spain,Europe,Southern Europe,-6.034722,43.563611,686
GZT,Oğuzeli,Gaziantep,Turkey,Asia,Western Asia,37.478611,36.947222,689
QOW,Sam Mbakwe,Owerri,Nigeria,Africa,Western Africa,7.206111,5.426944,690
GOP,Mahayogi Gorakhnath,Gorakhpur,India,Asia,Southern Asia,83.45,26.741111,691
RAI,Nelson Mandela International,Praia,Cape Verde,Africa,Western Africa,-23.484722,14.941389,693
KUN,Kaunas,Kaunas,Lithuania,Europe,Northern Europe,24.084722,54.963889,696
STV,Surat,Surat,India,Asia,Southern Asia,72.741667,21.114167,698
FNA,Lungi International,Freetown,Sierra Leone,Africa,Western Africa,-13.195556,8.616389,699
KAN,Mallam Aminu Kano International,Kano,Nigeria,Africa,Western Africa,8.524722,12.0475,708
NAV,Nevşehir Kapadokya,Nevşehir,Turkey,Asia,Western Asia,34.534444,38.771944,712
UET,Quetta International,Quetta,Pakistan,Asia,Southern Asia,66.937778,30.251389,714
ASM,Asmara International,Asmara,Eritrea,Africa,Eastern Africa,38.910556,15.291944,715
NDJ,N Djamena International,N Djamena,Chad,Africa,Central Africa,15.033889,12.133611,718
GRX,Federico García Lorca,Granada,Spain,Europe,Southern Europe,-3.777222,37.188611,720
TRS,Trieste – Friuli Venezia Giulia,Trieste,Italy,Europe,Southern Europe,13.472222,45.8275,725
HAS,Ha il Regional,Ha il,Saudi Arabia,Asia,Western Asia,41.686389,27.438056,729
CFU,Corfu International,Corfu,Greece,Europe,Southern Europe,19.911667,39.601944,733
COO,Cadjehoun,Cotonou,Benin,Africa,Western Africa,2.384444,6.357222,735
DED,Dehradun,Dehradun,India,Asia,Southern Asia,78.180278,30.189722,736
LBA,Leeds Bradford,Leeds,United Kingdom,Europe,Northern Europe,-1.660556,53.865833,737
ASB,Ashgabat International,Ashgabat,Turkmenistan,Asia,Central Asia,58.360833,37.986944,739
GOA,Genoa Cristoforo Colombo,Genoa,Italy,Europe,Southern Europe,8.8375,44.413333,742
BSR,Basra International,Basra,Iraq,Asia,Western Asia,47.662222,30.549167,743
HSR,Rajkot International Airport,Rajkot,India,Asia,Southern Asia,71.028333,22.388056,744
BDS,Brindisi,Brindisi,Italy,Europe,Southern Europe,17.948056,40.660556,751
DJE,Djerba–Zarzis International,Djerba,Tunisia,Africa,Northern Africa,10.775556,33.875,754
ARK,Arusha,Arusha,Tanzania,Africa,Eastern Africa,36.625,-3.367222,762
BKO,Bamako–Sénou International,Bamako,Mali,Africa,Western Africa,-7.95,12.533611,768
SXR,Srinagar International,Srinagar,India,Asia,Southern Asia,74.774167,33.987222,775
SCV,Suceava International,Suceava,Romania,Europe,Eastern Europe,26.354167,47.6875,777
SKD,Samarkand International,Samarkand,Uzbekistan,Asia,Central Asia,66.984722,39.700556,785
TRD,"Trondheim Airport, Værnes",Trondheim,Norway,Europe,Northern Europe,10.924167,63.4575,792
RHO,Rhodes International,Rhodes,Greece,Europe,Southern Europe,28.086111,36.405556,795
XRY,Jerez,Jerez de la Frontera,Spain,Europe,Southern Europe,-6.06,36.744722,796
SID,Amílcar Cabral International,Sal,Cape Verde,Africa,Western Africa,-22.949444,16.741389,797
SVG,"Stavanger Airport, Sola",Stavanger,Norway,Europe,Northern Europe,5.637778,58.876667,799
FKB,Karlsruhe/Baden-Baden,Karlsruhe,Germany,Europe,Central Europe,8.080556,48.779444,800
KMS,Kumasi,Kumasi,Ghana,Africa,Western Africa,-1.590833,6.714444,804
SZG,Salzburg,Salzburg,Austria,Europe,Central Europe,13.004444,47.793333,806
NYO,Stockholm Skavsta,Stockholm,Sweden,Europe,Northern Europe,16.912222,58.788611,807
BHO,Raja Bhoj,Bhopal,India,Asia,Southern Asia,77.3375,23.2875,812
JMK,Mykonos Island National,Mykonos,Greece,Europe,Southern Europe,25.348056,37.435,813
KRN,Kiruna,Kiruna,Sweden,Europe,Northern Europe,20.336667,67.821944,815
MJI,Mitiga International,Tripoli,Libya,Africa,Northern Africa,13.289722,32.893333,817
BRE,Bremen,Bremen,Germany,Europe,Central Europe,8.786667,53.0475,820
JIB,Djibouti–Ambouli International,Balbala,Djibouti,Africa,Eastern Africa,43.159444,11.547222,829
HGA,Hargeisa,Hargeisa,Somalia,Africa,Eastern Africa,44.083889,9.513889,830
LCG,A Coruña,A Coruña,Spain,Europe,Southern Europe,-8.377222,43.302222,831
MMX,Malmö,Malmö,Sweden,Europe,Northern Europe,13.375,55.5425,832
OUA,Ouagadougou,Ouagadougou,Burkina Faso,Africa,Western Africa,-1.5125,12.353333,836
PLQ,Palanga International,Palanga,Lithuania,Europe,Northern Europe,21.093889,55.973333,841
OLB,Olbia Costa Smeralda,Olbia,Italy,Europe,Southern Europe,9.517778,40.898611,842
SBZ,Sibiu International,Sibiu,Romania,Europe,Eastern Europe,24.091389,45.785556,847
NJF,Al Najaf International,Najaf,Iraq,Asia,Western Asia,44.404167,31.989722,848
SUF,Lamezia Terme International,Lamezia Terme,Italy,Europe,Southern Europe,16.241667,38.908333,850
AJF,Al-Jawf Domestic,Al Jawf Region,Saudi Arabia,Asia,Western Asia,40.1,29.785,851
ORK,Cork,Cork,Ireland,Europe,Northern Europe,-8.491111,51.841389,853
SXB,Strasbourg,Strasbourg,France,Europe,Western Europe,7.634444,48.541944,855
SNN,Shannon,"Shannon, County Clare",Ireland,Europe,Northern Europe,-8.924722,52.701944,857
DLM,Dalaman,Dalaman,Turkey,Asia,Western Asia,28.7925,36.713056,859
LFW,Lomé–Tokoin International,Lomé,Togo,Africa,Western Africa,1.254444,6.165556,860
KIS,Kisumu International,Kisumu,Kenya,Africa,Eastern Africa,34.729722,-0.085556,861
RZE,Rzeszów–Jasionka,Rzeszów,Poland,Europe,Central Europe,22.018889,50.11,867
CZL,Mohamed Boudiaf International,Constantine,Algeria,Africa,Northern Africa,6.620278,36.276111,868
LLA,Luleå,Luleå,Sweden,Europe,Northern Europe,22.121944,65.543889,884
LBV,Libreville International,Libreville,Gabon,Africa,Central Africa,9.412222,0.458611,896
BJM,Bujumbura International,Bujumbura,Burundi,Africa,Eastern Africa,29.318611,-3.323889,897
BHD,George Best Belfast City,Belfast,United Kingdom,Europe,Northern Europe,-5.8725,54.618056,900
TTU,Sania Ramel,Tétouan,Morocco,Africa,Northern Africa,-5.328056,35.59,903
KTT,Kittilä,Kittilä,Finland,Europe,Northern Europe,24.846944,67.701111,904
MYD,Malindi,Malindi,Kenya,Africa,Eastern Africa,40.101667,-3.229167,905
MAH,Menorca,Menorca,Spain,Europe,Southern Europe,4.218611,39.8625,910
PNA,Pamplona,Pamplona,Spain,Europe,Southern Europe,-1.646389,42.77,912
KYA,Konya,Konya,Turkey,Asia,Western Asia,32.561944,37.978889,916
SYZ,Shiraz International,Shiraz,Iran,Asia,Southern Asia,52.588611,29.540278,918
EMA,East Midlands,Nottingham,United Kingdom,Europe,Northern Europe,-1.328056,52.831111,921
IXJ,Jammu,Jammu,Unknown Region,Asia,Southern Asia,74.8375,32.689167,929
ULH,Prince Abdul Majeed bin Abdulaziz Domestic,Al-`Ula,Saudi Arabia,Asia,Western Asia,38.105278,26.489722,933
NDR,Nador International,Nador,Morocco,Africa,Northern Africa,-3.028333,34.988889,935
LEJ,Leipzig/Halle Airport,Leipzig,Germany,Europe,Central Europe,12.241667,51.4325,936
GHV,Brașov-Ghimbav International Airport,Brasov,Romania,Europe,Eastern Europe,25.52,45.701667,947
IXU,Aurangabad,Aurangabad,India,Asia,Southern Asia,75.398056,19.862778,948
REG,Reggio Calabria,Reggio Calabria,Italy,Europe,Southern Europe,15.653611,38.071944,949
KDU,Skardu,Skardu,Unknown Region,Asia,Southern Asia,75.546389,35.333056,950
OXB,Osvaldo Vieira International,Bissau,Guinea-Bissau,Africa,Western Africa,-15.653611,11.894722,956
LIL,Lille,Lille,France,Europe,Western Europe,3.086944,50.563333,963
AAL,Aalborg,Aalborg,Denmark,Europe,Northern Europe,9.849167,57.092778,966
RKT,Ras Al Khaimah International,Ras al-Khaimah,United Arab Emirates,Asia,Western Asia,55.938889,25.613611,967
IXL,Kushok Bakula Rimpochee,Leh,Unknown Region,Asia,Southern Asia,77.546389,34.135833,969
AHO,Alghero-Fertilia,Alghero,Italy,Europe,Southern Europe,8.289722,40.630278,971
MPL,Montpellier–Méditerranée,Montpellier,France,Europe,Western Europe,3.961389,43.583333,973
NOC,Ireland West Airport Knock,"Knock, County Mayo",Ireland,Europe,Northern Europe,-8.818611,53.910278,974
BWA,Gautam Buddha,Siddharthanagar,Nepal,Asia,Southern Asia,83.416389,27.505833,975
SEN,London Southend,London,United Kingdom,Europe,Northern Europe,0.695556,51.571389,976
RZV,Rize–Artvin Airport,Rize,Turkey,Asia,Western Asia,40.828889,41.169167,977
RMF,Marsa Alam International,Marsa Alam,Egypt,Africa,Northern Africa,34.583611,25.557222,978
SPC,La Palma,Santa Cruz de La Palma,Spain,Europe,Southern Europe,-17.755556,28.626389,981
LYR,"Svalbard Airport, Longyear",Longyearbyen,Svalbard & Jan Mayen,Europe,Northern Europe,15.465556,78.246111,983
VGO,Vigo–Peinador,Vigo,Spain,Europe,Southern Europe,-8.626667,42.231667,985
EAS,San Sebastián,Donostia / San Sebastián,Spain,Europe,Southern Europe,-1.790556,43.356389,989
EVE,"Harstad/Narvik Airport, Evenes",Narvik,Norway,Europe,Northern Europe,16.678056,68.491389,990
BOH,Bournemouth,Bournemouth,United Kingdom,Europe,Northern Europe,-1.8425,50.78,994
CWL,Cardiff,Cardiff,United Kingdom,Europe,Northern Europe,-3.343333,51.396667,998
MWZ,Mwanza,Mwanza,Tanzania,Africa,Eastern Africa,32.932778,-2.444444,1004
AKX,Aktobe,Aktobe,Kazakhstan,Asia,Central Asia,57.206667,50.245833,1011
FAE,Vágar,Sørvágur,Faroe Islands,Europe,Northern Europe,-7.293056,62.066389,1013
GNY,Sanliurfa,Şanlıurfa,Turkey,Asia,Western Asia,38.898752,37.447658,1019
BJV,Milas–Bodrum,Bodrum,Turkey,Asia,Western Asia,27.664444,37.250556,1020
AQJ,King Hussein International,Aqaba,Jordan,Asia,Western Asia,35.018056,29.611667,1022
ESU,Essaouira-Mogador,Essaouira,Morocco,Africa,Northern Africa,-9.681667,31.3975,1023
SCO,Aktau,Aktau,Kazakhstan,Asia,Central Asia,51.091944,43.86,1025
PSR,Abruzzo,Pescara,Italy,Europe,Southern Europe,14.186667,42.431667,1028
TKU,Turku,Turku,Finland,Europe,Northern Europe,22.262778,60.514167,1029
TBZ,Tabriz International,Tabriz,Iran,Asia,Southern Asia,46.235,38.133889,1033
LDE,Tarbes–Lourdes–Pyrénées,Lourdes,France,Europe,Western Europe,-0.002778,43.185556,1039
IVL,Ivalo,Ivalo,Finland,Europe,Northern Europe,27.405278,68.607222,1042
JNX,Naxos Island National,Naxos,Greece,Europe,Southern Europe,25.368611,37.082222,1043
RTM,Rotterdam The Hague,Rotterdam,Netherlands,Europe,Western Europe,4.430833,51.953056,1051
CRA,Craiova International,Craiova,Romania,Europe,Eastern Europe,23.888611,44.318056,1054
SMI,Samos International,Samos,Greece,Europe,Southern Europe,26.911667,37.69,1059
OSS,Osh,Osh,Kyrgyzstan,Asia,Central Asia,72.793333,40.608889,1061
OUL,Oulu,Oulu,Finland,Europe,Northern Europe,25.354444,64.93,1066
ZTH,Zakynthos International,Zakynthos Island,Greece,Europe,Southern Europe,20.884167,37.750833,1068
NQY,Cornwall Airport Newquay,Newquay,United Kingdom,Europe,Northern Europe,-5.001667,50.443333,1071
SDR,Santander,Santander,Spain,Europe,Southern Europe,-3.82,43.426944,1074
VXE,Cesária Évora,São Vicente,Cape Verde,Africa,Western Africa,-25.054722,16.833611,1077
RAE,Arar Domestic,Arar,Saudi Arabia,Asia,Western Asia,41.138333,30.906667,1080
LEI,Almería,Almería,Spain,Europe,Southern Europe,-2.37,36.843889,1083
JER,Jersey,Saint Helier,Jersey,Europe,Northern Europe,-2.195278,49.207778,1084
INI,Niš Constantine the Great,Niš,Serbia,Europe,Southern Europe,21.853611,43.337222,1085
GUW,Atyrau,Atyrau,Kazakhstan,Asia,Central Asia,51.821389,47.121944,1086
ERC,Erzincan,Erzincan,Turkey,Asia,Western Asia,39.526944,39.710278,1088
PAS,Paros National,Parikia,Greece,Europe,Southern Europe,25.128611,37.010278,1091
VIL,Dakhla,Dakhla,Unknown Region,Africa,Northern Africa,-15.931944,23.718333,1093
NIM,Diori Hamani International,Niamey,Niger,Africa,Western Africa,2.176667,13.481111,1094
SOU,Southampton,Southampton,United Kingdom,Europe,Northern Europe,-1.356667,50.950278,1095
BCM,George Enescu International,Bacău,Romania,Europe,Eastern Europe,26.910278,46.521944,1096
ZAZ,Zaragoza,Zaragoza,Spain,Europe,Southern Europe,-1.041667,41.666111,1098
KGS,Kos Island International,Kos,Greece,Europe,Southern Europe,27.091667,36.793333,1099
EFL,Kephalonia International,Cephalonia,Greece,Europe,Southern Europe,20.500556,38.12,1105
UME,Umeå,Umeå,Sweden,Europe,Northern Europe,20.282778,63.791944,1106
HTY,Hatay,Hatay Province,Turkey,Asia,Western Asia,36.284722,36.359722,1110
LWN,Shirak,Gyumri,Armenia,Asia,Western Asia,43.859444,40.750278,1113
TMS,São Tomé International,São Tomé,São Tomé & Príncipe,Africa,Central Africa,6.712222,0.378056,1114
ABZ,Aberdeen,Aberdeen,United Kingdom,Europe,Northern Europe,-2.200278,57.204167,1115
EDL,Eldoret International,Eldoret,Kenya,Africa,Eastern Africa,35.238889,0.404722,1116
JDH,Jodhpur,Jodhpur,India,Asia,Southern Asia,73.048889,26.251111,1117
TER,Lajes Field,Terceira Island,Portugal,Europe,Southern Europe,-27.090833,38.761944,1118
AAE,Rabah Bitat,Annaba,Algeria,Africa,Northern Africa,7.809167,36.822222,1122
LCJ,Łódź Władysław Reymont,Łódź,Poland,Europe,Central Europe,19.398056,51.721944,1124
KVA,Kavala International,Kavala,Greece,Europe,Southern Europe,24.619167,40.913333,1129
BJA,Abane Ramdane,Béjaïa,Algeria,Africa,Northern Africa,5.07,36.711944,1134
IOM,Isle of Man,Douglas,Isle of Man,Europe,Northern Europe,-4.624167,54.083333,1136
OHD,Ohrid St. Paul the Apostle,Ohrid,Republic of North Macedonia,Europe,Southern Europe,20.742222,41.18,1139
PDV,Plovdiv,Plovdiv,Bulgaria,Europe,Eastern Europe,24.850833,42.067778,1145
MLH,Mulhouse/Basel EuroAirport French FR,Basel,Switzerland,Europe,Central Europe,7.529167,47.600833,1146
GZP,Gazipaşa,Gazipaşa,Turkey,Asia,Western Asia,32.290278,36.298056,1147
VBY,Visby,Visby,Sweden,Europe,Northern Europe,18.346111,57.662778,1149
IFN,Isfahan International,Isfahan,Iran,Asia,Southern Asia,51.869722,32.751667,1155
JLR,Jabalpur,Jabalpur,India,Asia,Southern Asia,80.051944,23.177778,1160
ZAD,Zadar,Zadar,Croatia,Europe,Southern Europe,15.346667,44.108333,1162
INN,Innsbruck,Innsbruck,Austria,Europe,Central Europe,11.343889,47.260278,1166
JUB,Juba International,Juba,South Sudan,Africa,Eastern Africa,31.601111,4.871944,1167
BVC,Aristides Pereira International,Boa Vista,Cape Verde,Africa,Western Africa,-22.888889,16.136667,1171
RMU,Región de Murcia,Murcia,Spain,Europe,Southern Europe,-1.1279,37.8062,1185
GRZ,Graz,Graz,Austria,Europe,Central Europe,15.44,46.993611,1186
DHM,Dharamsala airport,Dharamshala,India,Asia,Southern Asia,76.260556,32.165278,1193
ERZ,Erzurum,Erzurum,Turkey,Asia,Western Asia,41.170278,39.956389,1198
HAU,"Haugesund Airport, Karmøy",Haugesund,Norway,Europe,Northern Europe,5.208333,59.345278,1200
KVO,Morava Airport,Kraljevo,Serbia,Europe,Southern Europe,20.585278,43.818611,1213
ALF,Alta,Alta,Norway,Europe,Northern Europe,23.371667,69.976111,1216
BIQ,Biarritz Pays Basque,Biarritz,France,Europe,Western Europe,-1.531111,43.468333,1224
BZO,Bolzano Airport,Bolzano,Italy,Europe,Southern Europe,11.3264,46.460201,1225
PIK,Glasgow Prestwick,Glasgow,United Kingdom,Europe,Northern Europe,-4.586667,55.509444,1226
KIR,Kerry,County Kerry,Ireland,Europe,Northern Europe,-9.523889,52.180833,1229
AOI,Marche Airport,Ancona,Italy,Europe,Southern Europe,13.360278,43.616667,1231
NKT,Şırnak,Şırnak,Turkey,Asia,Western Asia,42.061944,37.363611,1235
GGR,Garowe,Garoe,Somalia,Africa,Eastern Africa,48.5675,8.458056,1238
CIT,Shymkent International,Shymkent,Kazakhstan,Asia,Central Asia,69.478889,42.364167,1243
SEU,Seronera Airstrip,Seronera,Tanzania,Africa,Eastern Africa,34.821944,-2.457222,1244
TZL,Tuzla International,Tuzla,Bosnia & Herzegovina,Europe,Southern Europe,18.725556,44.458611,1245
GRO,Girona–Costa Brava,Girona,Spain,Europe,Southern Europe,2.760556,41.900833,1248
KAO,Kuusamo,Kuusamo,Finland,Europe,Northern Europe,29.239444,65.9875,1254
INV,Inverness,Inverness,United Kingdom,Europe,Northern Europe,-4.05,57.54,1255
AAR,Aarhus,Aarhus,Denmark,Europe,Northern Europe,10.619444,56.303889,1256
URC,Ürümqi Diwopu International,Ürümqi,China,Asia,Eastern Asia,87.474167,43.907222,1258
RNS,Rennes–Saint-Jacques,Rennes,France,Europe,Western Europe,-1.732222,48.071944,1262
ETM,Ramon Airport,Eilat,Israel,Asia,Western Asia,35.011417,29.723694,1263
VST,Stockholm Västerås,Stockholm,Sweden,Europe,Northern Europe,16.633611,59.589444,1265
ANR,Antwerp International,Brussels,Belgium,Europe,Western Europe,4.460278,51.189444,1268
XCR,Châlons Vatry,Paris,France,Europe,Western Europe,4.206111,48.773333,1269
BNX,Banja Luka International,Banja Luka,Bosnia & Herzegovina,Europe,Southern Europe,17.2975,44.941389,1270
SZF,Samsun-Çarşamba,Samsun,Turkey,Asia,Western Asia,36.567222,41.254444,1273
LAU,Manda,Lamu,Kenya,Africa,Eastern Africa,40.913056,-2.2525,1275
JSA,Jaisalmer,Jaisalmer,India,Asia,Southern Asia,70.865,26.888611,1276
ADE,Aden International Airport,Aden,Yemen,Asia,Western Asia,45.028801,12.8295,1277
AAN,Al Ain International,Al Ain,United Arab Emirates,Asia,Western Asia,55.609167,24.261667,1280
MLO,Milos Island National,"Plaka, Milos",Greece,Europe,Southern Europe,24.472778,36.696667,1286
UGC,Urgench International,Urgench,Uzbekistan,Asia,Central Asia,60.641667,41.584167,1287
AES,"Ålesund Airport, Vigra",Ålesund,Norway,Europe,Northern Europe,6.110278,62.560278,1288
MJT,Mytilene International,Mytilene,Greece,Europe,Southern Europe,26.602222,39.053333,1289
JKH,Chios Island National,Chios,Greece,Europe,Southern Europe,26.140556,38.343056,1290
KSN,Kostanay,Kostanay,Kazakhstan,Asia,Central Asia,63.550278,53.206944,1291
SFT,Skellefteå,Skellefteå,Sweden,Europe,Northern Europe,21.076944,64.624722,1292
RMI,Federico Fellini International,Rimini,Italy,Europe,Southern Europe,12.609444,44.019444,1294
YNB,Yanbu,Yanbu,Saudi Arabia,Asia,Western Asia,38.063333,24.144167,1295
GNB,Alpes–Isère,Grenoble,France,Europe,Western Europe,5.332778,45.363056,1297
YOL,Yola,Yola,Nigeria,Africa,Western Africa,12.430556,9.2575,1301
DNZ,Denizli Çardak,Denizli,Turkey,Asia,Western Asia,29.701389,37.785556,1302
LUZ,Lublin,Lublin,Poland,Europe,Central Europe,22.690556,51.231389,1304
FMO,Münster Osnabrück International,Münster,Germany,Europe,Central Europe,7.684722,52.134722,1306
KTL,Kitale,Kitale,Kenya,Africa,Eastern Africa,34.959722,0.973333,1308
QSR,Salerno / Pontecagnano Airport,Salerno,Italy,Europe,Southern Europe,14.9113,40.620399,1310
AOE,Anadolu,Eskişehir,Turkey,Asia,Western Asia,30.516944,39.81,1311
SVJ,"Svolvær Airport, Helle",Svolvær,Norway,Europe,Northern Europe,14.669444,68.243889,1317
BZG,Bydgoszcz Ignacy Jan Paderewski,Bydgoszcz,Poland,Europe,Central Europe,17.977778,53.096667,1319
JSI,Skiathos Island National,Skiathos,Greece,Europe,Southern Europe,23.503611,39.177222,1321
URY,Gurayat Domestic,Qurayyat,Saudi Arabia,Asia,Western Asia,37.279444,31.411944,1322
AEY,Akureyri,Akureyri,Iceland,Europe,Northern Europe,-18.072222,65.658611,1332
CMF,Chambéry,Chambéry,France,Europe,Western Europe,5.88,45.639167,1333
OMR,Oradea International,Oradea,Romania,Europe,Eastern Europe,21.9025,47.025278,1335
VAA,Vaasa,Vaasa,Finland,Europe,Northern Europe,21.762222,63.050556,1340
MIU,Maiduguri International Airport,Maiduguri,Nigeria,Africa,Western Africa,13.0809,11.8553,1341
PEG,San Francesco d Assisi,Perugia,Italy,Europe,Southern Europe,12.510278,43.097222,1343
MQM,Mardin,Mardin,Turkey,Asia,Western Asia,40.631667,37.223333,1344
BOO,Bodø,Bodø,Norway,Europe,Northern Europe,14.365278,67.269167,1346
PNR,Pointe Noire,Pointe-Noire,Republic of the Congo,Africa,Central Africa,11.886667,-4.816111,1354
DRS,Dresden,Dresden,Germany,Europe,Central Europe,13.768056,51.134444,1357
BHJ,Bhuj,Bhuj,India,Asia,Southern Asia,69.670278,23.287778,1363
GCI,Guernsey,Saint Peter Port,Guernsey,Europe,Northern Europe,-2.601944,49.434722,1370
BHK,Bukhara International,Bukhara,Uzbekistan,Asia,Central Asia,64.48,39.766389,1375
KRS,"Kristiansand Airport, Kjevik",Kristiansand,Norway,Europe,Northern Europe,8.085278,58.204167,1377
BEM,Beni Mellal,Beni Mellal,Morocco,Africa,Northern Africa,-6.317222,32.4,1386
KFS,Kastamonu,Kastamonu,Turkey,Asia,Western Asia,33.796111,41.315,1387
TOE,Tozeur–Nefta International,Tozeur,Tunisia,Africa,Northern Africa,8.110556,33.939722,1389
OGU,Ordu–Giresun,Giresun,Turkey,Asia,Western Asia,38.085833,40.966944,1393
MRA,Misrata,Misurata,Libya,Africa,Northern Africa,15.061389,32.321944,1396
BRQ,Brno–Tuřany,Brno,Czechia,Europe,Central Europe,16.694444,49.151389,1402
KNU,Kanpur,Kanpur,India,Asia,Southern Asia,80.409174,26.409102,1408
SAG,Shirdi,Shirdi,India,Asia,Southern Asia,74.3754,19.69,1412
SZZ,Solidarity Szczecin–Goleniów,Szczecin,Poland,Europe,Central Europe,14.902222,53.584722,1414
KEP,Nepalgunj,Nepalgunj,Nepal,Asia,Southern Asia,81.666944,28.103611,1416
KKN,"Kirkenes Airport, Høybuktmoen",Kirkenes,Norway,Europe,Northern Europe,29.891389,69.725833,1419
KGF,Sary-Arka,Karaganda,Kazakhstan,Asia,Central Asia,73.334444,49.670833,1421
JIJ,Jijiga,Jijiga,Ethiopia,Africa,Eastern Africa,42.912614,9.333482,1425
ISK,Gandhinagar Airport,Nashik,India,Asia,Southern Asia,73.807602,19.963699,1427
KCM,Kahramanmaraş,Kahramanmaraş,Turkey,Asia,Western Asia,36.953333,37.538889,1430
BEN,Benina International,Benghazi,Libya,Africa,Northern Africa,20.269444,32.096667,1437
ADF,Adıyaman,Adıyaman,Turkey,Asia,Western Asia,38.468889,37.731389,1438
DIY,Diyarbakır,Diyarbakır,Turkey,Asia,Western Asia,40.201111,37.893889,1440
BLJ,Mostépha Ben Boulaid,Batna,Algeria,Africa,Northern Africa,6.308611,35.752222,1443
AQI,Al Qaisumah/Hafr Al Batin,Qaisumah,Saudi Arabia,Asia,Western Asia,46.125,28.335278,1446
AGR,Agra,Agra,India,Asia,Southern Asia,77.960833,27.155833,1450
DPS,Ngurah Rai International,Denpasar,Indonesia,Asia,South-Eastern Asia,115.167222,-8.748056,68
SUB,Juanda International,Surabaya,Indonesia,Asia,South-Eastern Asia,112.786944,-7.379722,458
LOP,Lombok International,"Praya, Lombok",Indonesia,Asia,South-Eastern Asia,116.276667,-8.757222,507
LBJ,Komodo,Labuan Bajo,Indonesia,Asia,South-Eastern Asia,119.889167,-8.486667,603
YIA,Yogyakarta International Airport,Yogyakarta,Indonesia,Asia,South-Eastern Asia,110.05448,-7.907459,682
UPG,Sultan Hasanuddin International,Makassar,Indonesia,Asia,South-Eastern Asia,119.554167,-5.061667,909
SOC,Adisumarmo International,Surakarta,Indonesia,Asia,South-Eastern Asia,110.756944,-7.516111,1222
SRG,Ahmad Yani International,Semarang,Indonesia,Asia,South-Eastern Asia,110.374167,-6.971389,1247
BDJ,Syamsudin Noor International,Banjarmasin,Indonesia,Asia,South-Eastern Asia,114.7625,-3.442222,1252
MLG,Abdul Rachman Saleh,Malang,Indonesia,Asia,South-Eastern Asia,112.714444,-7.926667,1545
PKN,Iskandar,Pangkalan Bun,Indonesia,Asia,South-Eastern Asia,111.673333,-2.705278,1552
JOG,Adisutjipto International,Yogyakarta,Indonesia,Asia,South-Eastern Asia,110.431667,-7.788056,1626
TMC,Tambolaka,Tambolaka,Indonesia,Asia,South-Eastern Asia,119.244444,-9.409722,1859
JBB,Notohadinegoro,Jember Regency,Indonesia,Asia,South-Eastern Asia,113.694444,-8.242222,1867
MOF,Frans Xavier Seda,Maumere,Indonesia,Asia,South-Eastern Asia,122.236944,-8.640556,1897
MJU,Tampa Padang,Mamuju Regency,Indonesia,Asia,South-Eastern Asia,119.027778,-2.588333,1907
BWX,Blimbingsari,Banyuwangi,Indonesia,Asia,South-Eastern Asia,114.34,-8.310278,2048
SUP,Trunojoyo Airport,Sumenep,Indonesia,Asia,South-Eastern Asia,113.890206,-7.02425,2048
SWQ,Sultan Muhammad Kaharuddin III,Sumbawa Besar,Indonesia,Asia,South-Eastern Asia,117.411389,-8.488056,2048
BMU,Sultan Muhammad Salahudin,Bima,Indonesia,Asia,South-Eastern Asia,118.687222,-8.539722,2048
BTW,Batu Licin,Batulicin,Indonesia,Asia,South-Eastern Asia,116.0,-3.45,2048
KBU,Gusti Syamsir Alam,Kotabaru Regency,Indonesia,Asia,South-Eastern Asia,116.164722,-3.296111,2048
WGP,Umbu Mehang Kunda,Waingapu,Indonesia,Asia,South-Eastern Asia,120.301944,-9.669167,2048
RTG,Frans Sales Lega,Ruteng,Indonesia,Asia,South-Eastern Asia,120.478056,-8.596111,2048
KSR,Haji Aroeppala,Selayar Regency,Indonesia,Asia,South-Eastern Asia,120.43866,-6.180135,2048
BJW,Turelelo Soa,Bajawa,Indonesia,Asia,South-Eastern Asia,121.057778,-8.707778,2048
SMQ,H. Asan,Sampit,Indonesia,Asia,South-Eastern Asia,112.975,-2.499167,2048
PKY,Tjilik Riwut,Palangka Raya,Indonesia,Asia,South-Eastern Asia,113.942778,-2.225,2048
ENE,H. Hasan Aroeboesman,Ende,Indonesia,Asia,South-Eastern Asia,121.660556,-8.849167,2048
KJT,Kertajati International,Kertajati,Indonesia,Asia,South-Eastern Asia,108.191111,-6.669167,2048
